NORAD_CAT_ID,OBJECT_NAME,OBJECT_TYPE,EPOCH,MEAN_MOTION,ECCENTRICITY,INCLINATION,RA_OF_ASC_NODE,ARG_OF_PERICENTER,MEAN_ANOMALY,BSTAR,MEAN_MOTION_DOT,MEAN_MOTION_DDOT,TLE_LINE0,TLE_LINE1,TLE_LINE2,SEMIMAJOR_AXIS,PERIOD,APOGEE,PERIGEE,DECAYED
52286.0,STARLINK-3802,PAYLOAD,2023-02-20 08:07:42,15.08848156,0.0001106,53.218,57.1497,87.0137,273.0982,8.0821e-05,9.99e-06,0.0,0 STARLINK-3802,1 52286U 22041AB  23051.33868550  .00000999  00000-0  80821-4 0  9991,2 52286  53.2180  57.1497 0001106  87.0137 273.0982 15.08848156 46424,6917.855,95.437,540.486,538.955,0.0
52286.0,STARLINK-3802,PAYLOAD,2023-02-21 04:47:43,15.0884759,0.0001085,53.2194,53.2849,89.0107,271.101,-8.4906e-05,-1.639e-05,0.0,0 STARLINK-3802,1 52286U 22041AB  23052.19980772 -.00001639  00000-0 -84906-4 0  9999,2 52286  53.2194  53.2849 0001085  89.0107 271.1010 15.08847590 47773,6917.857,95.437,540.473,538.972,0.0
52286.0,STARLINK-3802,PAYLOAD,2023-02-21 06:23:06,15.08848634,0.00011,53.2191,52.9875,88.2097,271.9021,-7.8992e-05,-1.545e-05,0.0,0 STARLINK-3802,1 52286U 22041AB  23052.26604652 -.00001545  00000-0 -78992-4 0  9991,2 52286  53.2191  52.9875 0001100  88.2097 271.9021 15.08848634 46568,6917.854,95.437,540.48,538.958,0.0
52286.0,STARLINK-3802,PAYLOAD,2023-02-21 17:30:48,15.08840664,0.000137,53.2179,50.9047,90.1782,269.9367,-9.8026e-06,-4.44e-06,0.0,0 STARLINK-3802,1 52286U 22041AB  23052.72972791 -.00000444  00000-0 -98026-5 0  9992,2 52286  53.2179  50.9047 0001370  90.1782 269.9367 15.08840664 46638,6917.878,95.438,540.691,538.796,0.0
52286.0,STARLINK-3802,PAYLOAD,2023-02-22 09:24:39,15.0884706,0.0001352,53.2178,47.9306,91.3185,268.7962,-1.5423e-05,-5.33e-06,0.0,0 STARLINK-3802,1 52286U 22041AB  23053.39212370 -.00000533  00000-0 -15423-4 0  9994,2 52286  53.2178  47.9306 0001352  91.3185 268.7962 15.08847060 47952,6917.859,95.437,540.659,538.789,0.0
52286.0,STARLINK-3802,PAYLOAD,2023-02-23 06:04:40,15.08838957,0.0001003,53.2178,44.0629,96.349,263.7616,8.2278e-05,1.022e-05,0.0,0 STARLINK-3802,1 52286U 22041AB  23054.25324688  .00001022  00000-0  82278-4 0  9990,2 52286  53.2178  44.0629 0001003  96.3490 263.7616 15.08838957 48086,6917.884,95.438,540.442,539.055,0.0
52286.0,STARLINK-3802,PAYLOAD,2023-02-23 09:15:26,15.08842242,0.0001216,53.2184,43.4699,96.3363,263.7768,6.5288e-05,7.51e-06,0.0,0 STARLINK-3802,1 52286U 22041AB  23054.38572531  .00000751  00000-0  65288-4 0  9996,2 52286  53.2184  43.4699 0001216  96.3363 263.7768 15.08842242 46884,6917.874,95.437,540.58,538.897,0.0
52286.0,STARLINK-3802,PAYLOAD,2023-02-24 05:55:26,15.08852068,0.0001058,53.2177,39.6045,95.2751,264.8362,0.00017214,2.454e-05,0.0,0 STARLINK-3802,1 52286U 22041AB  23055.24683516  .00002454  00000-0  17214-3 0  9995,2 52286  53.2177  39.6045 0001058  95.2751 264.8362 15.08852068 48231,6917.844,95.437,540.44,538.977,0.0
52286.0,STARLINK-3802,PAYLOAD,2023-02-24 09:06:12,15.08857863,0.0001103,53.2179,39.0097,93.7734,266.3384,0.00014757,2.063e-05,0.0,0 STARLINK-3802,1 52286U 22041AB  23055.37931170  .00002063  00000-0  14757-3 0  9996,2 52286  53.2179  39.0097 0001103  93.7734 266.3384 15.08857863 47035,6917.826,95.436,540.454,538.928,0.0
52286.0,STARLINK-3802,PAYLOAD,2023-02-24 15:27:46,15.08840774,0.0001197,53.2182,37.819,88.1435,271.9694,7.6329e-05,9.27e-06,0.0,0 STARLINK-3802,1 52286U 22041AB  23055.64428488  .00000927  00000-0  76329-4 0  9990,2 52286  53.2182  37.8190 0001197  88.1435 271.9694 15.08840774 47071,6917.878,95.438,540.571,538.915,0.0
52286.0,STARLINK-3802,PAYLOAD,2023-02-24 23:24:43,15.08827627,0.0001481,53.2201,36.3364,102.4385,257.6773,-5.2514e-05,-1.123e-05,0.0,0 STARLINK-3802,1 52286U 22041AB  23055.97550123 -.00001123  00000-0 -52514-4 0  9999,2 52286  53.2201  36.3364 0001481 102.4385 257.6773 15.08827627 48342,6917.918,95.438,540.808,538.759,0.0
52286.0,STARLINK-3802,PAYLOAD,2023-02-25 07:21:38,15.08829998,0.000106,53.2188,34.8471,90.0117,270.0996,-4.0351e-05,-9.3e-06,0.0,0 STARLINK-3802,1 52286U 22041AB  23056.30669944 -.00000930  00000-0 -40351-4 0  9990,2 52286  53.2188  34.8471 0001060  90.0117 270.0996 15.08829998 47175,6917.911,95.438,540.509,539.043,0.0
52286.0,STARLINK-3802,PAYLOAD,2023-02-25 15:18:34,15.08836786,0.0001091,53.2186,33.3606,88.9353,271.1764,-1.1583e-05,-4.72e-06,0.0,0 STARLINK-3802,1 52286U 22041AB  23056.63789567 -.00000472  00000-0 -11583-4 0  9996,2 52286  53.2186  33.3606 0001091  88.9353 271.1764 15.08836786 48448,6917.89,95.438,540.51,539.0,0.0
52286.0,STARLINK-3802,PAYLOAD,2023-02-25 21:40:06,15.08840363,0.0001025,53.2188,32.1703,93.2304,266.8805,6.7958e-05,7.94e-06,0.0,0 STARLINK-3802,1 52286U 22041AB  23056.90285207  .00000794  00000-0  67958-4 0  9990,2 52286  53.2188  32.1703 0001025  93.2304 266.8805 15.08840363 47269,6917.879,95.438,540.453,539.035,0.0
52286.0,STARLINK-3802,PAYLOAD,2023-02-26 02:26:15,15.08854899,9.84e-05,53.2188,31.2792,93.3181,266.7924,8.4996e-05,1.066e-05,0.0,0 STARLINK-3802,1 52286U 22041AB  23057.10156296  .00001066  00000-0  84996-4 0  9992,2 52286  53.2188  31.2792 0000984  93.3181 266.7924 15.08854899 48513,6917.835,95.437,540.381,539.019,0.0
52286.0,STARLINK-3802,PAYLOAD,2023-02-26 07:12:24,15.08859381,0.0001084,53.218,30.3869,90.913,269.1986,0.00027674,4.122e-05,0.0,0 STARLINK-3802,1 52286U 22041AB  23057.30028071  .00004122  00000-0  27674-3 0  9998,2 52286  53.2180  30.3869 0001084  90.9130 269.1986 15.08859381 47323,6917.821,95.436,540.436,538.936,0.0
52286.0,STARLINK-3802,PAYLOAD,2023-02-26 21:30:53,15.08843966,0.0001407,53.2178,27.7107,86.0396,274.0757,0.00023769,3.497e-05,0.0,0 STARLINK-3802,1 52286U 22041AB  23057.89645003  .00003497  00000-0  23769-3 0  9997,2 52286  53.2178  27.7107 0001407  86.0396 274.0757 15.08843966 47417,6917.868,95.437,540.707,538.76,0.0
52286.0,STARLINK-3802,PAYLOAD,2023-02-26 23:06:16,15.08842783,0.0001124,53.2176,27.4128,91.5289,268.5832,0.00030042,4.497e-05,0.0,0 STARLINK-3802,1 52286U 22041AB  23057.96269010  .00004497  00000-0  30042-3 0  9998,2 52286  53.2176  27.4128 0001124  91.5289 268.5832 15.08842783 48647,6917.872,95.437,540.514,538.959,0.0
52286.0,STARLINK-3802,PAYLOAD,2023-02-27 21:21:39,15.0886875,0.0001351,53.2187,23.2507,84.5379,275.5767,0.00047226,7.242e-05,0.0,0 STARLINK-3802,1 52286U 22041AB  23058.89003497  .00007242  00000-0  47226-3 0  9999,2 52286  53.2187  23.2507 0001351  84.5379 275.5767 15.08868750 47565,6917.793,95.436,540.592,538.723,0.0
52286.0,STARLINK-3802,PAYLOAD,2023-02-28 03:43:10,15.08890849,0.0001201,53.2171,22.0603,106.0024,254.1101,0.0013962,0.00022033,0.0,0 STARLINK-3802,1 52286U 22041AB  23059.15498621  .00022033  00000-0  13962-2 0  9990,2 52286  53.2171  22.0603 0001201 106.0024 254.1101 15.08890849 48822,6917.725,95.434,540.421,538.759,0.0
52286.0,STARLINK-3802,PAYLOAD,2023-02-28 06:53:56,15.08916463,0.0001143,53.2172,21.4652,97.4143,262.6979,0.0023656,0.00037641,0.0,0 STARLINK-3802,1 52286U 22041AB  23059.28745928  .00037641  00000-0  23656-2 0  9991,2 52286  53.2172  21.4652 0001143  97.4143 262.6979 15.08916463 48840,6917.647,95.433,540.302,538.721,0.0
52286.0,STARLINK-3802,PAYLOAD,2023-02-28 21:12:26,15.08784594,0.000213,53.2173,18.7896,96.8224,263.301,-0.0024114,-0.00038405,0.0,0 STARLINK-3802,1 52286U 22041AB  23059.88363915 -.00038405  00000-0 -24114-2 0  9990,2 52286  53.2173  18.7896 0002130  96.8224 263.3010 15.08784594 47717,6918.05,95.441,541.388,538.441,0.0
52286.0,STARLINK-3802,PAYLOAD,2023-03-01 03:34:00,15.08774565,0.0001821,53.2174,17.6011,79.323,280.7967,0.00051675,7.931e-05,0.0,0 STARLINK-3802,1 52286U 22041AB  23060.14861697  .00007931  00000-0  51675-3 0  9992,2 52286  53.2174  17.6011 0001821  79.3230 280.7967 15.08774565 48974,6918.08,95.442,541.205,538.686,0.0
52286.0,STARLINK-3802,PAYLOAD,2023-03-01 08:20:10,15.08783759,0.000183,53.2169,16.708,76.1415,283.9781,0.0015952,0.00025152,0.0,0 STARLINK-3802,1 52286U 22041AB  23060.34734444  .00025152  00000-0  15952-2 0  9995,2 52286  53.2169  16.7080 0001830  76.1415 283.9781 15.08783759 49003,6918.052,95.441,541.183,538.651,0.0
52286.0,STARLINK-3802,PAYLOAD,2023-03-02 03:24:48,15.08862043,0.0001877,53.2175,13.14,82.0642,278.0563,0.002566,0.00040812,0.0,0 STARLINK-3802,1 52286U 22041AB  23061.14222941  .00040812  00000-0  25660-2 0  9995,2 52286  53.2175  13.1400 0001877  82.0642 278.0563 15.08862043 49126,6917.813,95.436,540.976,538.38,0.0
52286.0,STARLINK-3802,PAYLOAD,2023-03-03 06:26:20,15.08897402,0.000191,53.2177,8.086,77.4451,282.6755,0.0021953,0.00034879,0.0,0 STARLINK-3802,1 52286U 22041AB  23062.26829241  .00034879  00000-0  21953-2 0  9992,2 52286  53.2177   8.0860 0001910  77.4451 282.6755 15.08897402 49294,6917.705,95.434,540.891,538.249,0.0
52286.0,STARLINK-3802,PAYLOAD,2023-03-04 03:06:20,15.0888478,0.0001722,53.2177,4.2142,94.3279,265.791,0.0013416,0.00021154,0.0,0 STARLINK-3802,1 52286U 22041AB  23063.12939980  .00021154  00000-0  13416-2 0  9997,2 52286  53.2177   4.2142 0001722  94.3279 265.7910 15.08884780 49427,6917.744,95.435,540.8,538.417,0.0
52286.0,STARLINK-3802,PAYLOAD,2023-03-04 19:00:12,15.08825163,0.0001963,53.2185,1.2443,119.2687,240.8501,0.00088959,0.00013892,0.0,0 STARLINK-3802,1 52286U 22041AB  23063.79180858  .00013892  00000-0  88959-3 0  9997,2 52286  53.2185   1.2443 0001963 119.2687 240.8501 15.08825163 49525,6917.926,95.438,541.149,538.433,0.0
52286.0,STARLINK-3802,PAYLOAD,2023-03-05 04:32:31,15.08836825,0.0001681,53.2183,359.4598,98.3393,261.7789,0.00026624,3.951e-05,0.0,0 STARLINK-3802,1 52286U 22041AB  23064.18925090  .00003951  00000-0  26624-3 0  9992,2 52286  53.2183 359.4598 0001681  98.3393 261.7789 15.08836825 48368,6917.89,95.438,540.918,538.592,0.0
52286.0,STARLINK-3802,PAYLOAD,2023-03-06 05:58:41,15.0885174,0.000153,53.2177,354.7015,112.6351,247.4803,0.0012335,0.00019404,0.0,0 STARLINK-3802,1 52286U 22041AB  23065.24909281  .00019404  00000-0  12335-2 0  9997,2 52286  53.2177 354.7015 0001530 112.6351 247.4803 15.08851740 49744,6917.845,95.437,540.768,538.651,0.0
